{"type": "FeatureCollection", "features": [ {"type": "Feature", "properties": {"norad_id": 66909, "name": "SILVERSAT", "group": "last-30-days", "lat": 19.56937451338013, "lon": 116.85020547630296, "alt_km": 407.6996011305746, "timestamp": "2025-12-21T03:56:49.617225+00:00", "meta": {"OBJECT_NAME": "SILVERSAT", "OBJECT_ID": "1998-067XV", "EPOCH": "2025-12-19T13:13:09.424128", "MEAN_MOTION": 15.5251652, "ECCENTRICITY": 0.0003839, "INCLINATION": 51.6306, "RA_OF_ASC_NODE": 108.5226, "ARG_OF_PERICENTER": 268.696, "MEAN_ANOMALY": 91.359, "EPHEMERIS_TYPE": 0, "CLASSIFICATION_TYPE": "U", "NORAD_CAT_ID": 66909, "ELEMENT_SET_NO": 999, "REV_AT_EPOCH": 267, "BSTAR": 0.00079912, "MEAN_MOTION_DOT": 0.00049748, "MEAN_MOTION_DDOT": 0}, "tle": {"line1": "1 66909U 98067XV  25353.55080352  .00049748  00000+0  79912-3 0  9998", "line2": "2 66909  51.6306 108.5226 0003839 268.6960  91.3590 15.52516520  2671"}}, "geometry": {"type": "Point", "coordinates": [116.85020547630296, 19.56937451338013]}}, {"type": "Feature", "properties": {"norad_id": 66910, "name": "1998-067XW", "group": "last-30-days", "lat": 26.94127167575111, "lon": 124.21828493652205, "alt_km": 407.845900809265, "timestamp": "2025-12-21T03:56:49.617237+00:00", "meta": {"OBJECT_NAME": "1998-067XW", "OBJECT_ID": "1998-067XW", "EPOCH": "2025-12-20T20:04:19.500384", "MEAN_MOTION": 15.52648438, "ECCENTRICITY": 0.0004199, "INCLINATION": 51.6307, "RA_OF_ASC_NODE": 102.1064, "ARG_OF_PERICENTER": 252.0731, "MEAN_ANOMALY": 107.9801, "EPHEMERIS_TYPE": 0, "CLASSIFICATION_TYPE": "U", "NORAD_CAT_ID": 66910, "ELEMENT_SET_NO": 999, "REV_AT_EPOCH": 287, "BSTAR": 0.00071944, "MEAN_MOTION_DOT": 0.0004493, "MEAN_MOTION_DDOT": 0}, "tle": {"line1": "1 66910U 98067XW  25354.83633681  .00044930  00000+0  71944-3 0  9996", "line2": "2 66910  51.6307 102.1064 0004199 252.0731 107.9801 15.52648438  2872"}}, "geometry": {"type": "Point", "coordinates": [124.21828493652205, 26.94127167575111]}}, {"type": "Feature", "properties": {"norad_id": 66911, "name": "1998-067XX", "group": "last-30-days", "lat": 36.9444575443252, "lon": 137.01228424010574, "alt_km": 405.0099045521556, "timestamp": "2025-12-21T03:56:49.617246+00:00", "meta": {"OBJECT_NAME": "1998-067XX", "OBJECT_ID": "1998-067XX", "EPOCH": "2025-12-20T15:22:41.136096", "MEAN_MOTION": 15.53054787, "ECCENTRICITY": 0.0003876, "INCLINATION": 51.6313, "RA_OF_ASC_NODE": 103.0498, "ARG_OF_PERICENTER": 258.0568, "MEAN_ANOMALY": 101.9988, "EPHEMERIS_TYPE": 0, "CLASSIFICATION_TYPE": "U", "NORAD_CAT_ID": 66911, "ELEMENT_SET_NO": 999, "REV_AT_EPOCH": 283, "BSTAR": 0.00081113, "MEAN_MOTION_DOT": 0.00051512, "MEAN_MOTION_DDOT": 0}, "tle": {"line1": "1 66911U 98067XX  25354.64075389  .00051512  00000+0  81113-3 0  9994", "line2": "2 66911  51.6313 103.0498 0003876 258.0568 101.9988 15.53054787  2831"}}, "geometry": {"type": "Point", "coordinates": [137.01228424010574, 36.9444575443252]}}, {"type": "Feature", "properties": {"norad_id": 66912, "name": "1998-067XY", "group": "last-30-days", "lat": -2.9373530896172815, "lon": 98.22151037400295, "alt_km": 412.2789877129826, "timestamp": "2025-12-21T03:56:49.617255+00:00", "meta": {"OBJECT_NAME": "1998-067XY", "OBJECT_ID": "1998-067XY", "EPOCH": "2025-12-19T14:52:14.043072", "MEAN_MOTION": 15.51780846, "ECCENTRICITY": 0.0004012, "INCLINATION": 51.6307, "RA_OF_ASC_NODE": 108.231, "ARG_OF_PERICENTER": 260.881, "MEAN_ANOMALY": 99.1725, "EPHEMERIS_TYPE": 0, "CLASSIFICATION_TYPE": "U", "NORAD_CAT_ID": 66912, "ELEMENT_SET_NO": 999, "REV_AT_EPOCH": 267, "BSTAR": 0.00063264, "MEAN_MOTION_DOT": 0.00038197, "MEAN_MOTION_DDOT": 0}, "tle": {"line1": "1 66912U 98067XY  25353.61960698  .00038197  00000+0  63264-3 0  9998", "line2": "2 66912  51.6307 108.2310 0004012 260.8810  99.1725 15.51780846  2678"}}, "geometry": {"type": "Point", "coordinates": [98.22151037400295, -2.9373530896172815]}}, {"type": "Feature", "properties": {"norad_id": 66913, "name": "2025-284A", "group": "last-30-days", "lat": -30.628724148855557, "lon": 113.36496762949628, "alt_km": 536.4163193074392, "timestamp": "2025-12-21T03:56:49.617264+00:00", "meta": {"OBJECT_NAME": "2025-284A", "OBJECT_ID": "2025-284A", "EPOCH": "2025-12-18T06:24:29.359008", "MEAN_MOTION": 15.16462178, "ECCENTRICITY": 0.00203688, "INCLINATION": 80.4052, "RA_OF_ASC_NODE": 122.7714, "ARG_OF_PERICENTER": 156.4299, "MEAN_ANOMALY": 203.7866, "EPHEMERIS_TYPE": 0, "CLASSIFICATION_TYPE": "U", "NORAD_CAT_ID": 66913, "ELEMENT_SET_NO": 999, "REV_AT_EPOCH": 196, "BSTAR": 0.00046237905, "MEAN_MOTION_DOT": 9.066e-05, "MEAN_MOTION_DDOT": 0}, "tle": {"line1": "1 66913U 25284A   25352.26700647  .00009066  00000+0  46238-3 0  9991", "line2": "2 66913  80.4052 122.7714 0020368 156.4299 203.7866 15.16462178  1964"}}, "geometry": {"type": "Point", "coordinates": [113.36496762949628, -30.628724148855557]}}, {"type": "Feature", "properties": {"norad_id": 66914, "name": "2025-284B", "group": "last-30-days", "lat": 23.903585810923605, "lon": 123.38694490888132, "alt_km": 513.5830681942807, "timestamp": "2025-12-21T03:56:49.617273+00:00", "meta": {"OBJECT_NAME": "2025-284B", "OBJECT_ID": "2025-284B", "EPOCH": "2025-12-16T06:51:11.417184", "MEAN_MOTION": 15.18985981, "ECCENTRICITY": 0.00081793, "INCLINATION": 80.4045, "RA_OF_ASC_NODE": 125.2713, "ARG_OF_PERICENTER": 234.9626, "MEAN_ANOMALY": 125.0834, "EPHEMERIS_TYPE": 0, "CLASSIFICATION_TYPE": "U", "NORAD_CAT_ID": 66914, "ELEMENT_SET_NO": 999, "REV_AT_EPOCH": 166, "BSTAR": 0.00038444995, "MEAN_MOTION_DOT": 8.068e-05, "MEAN_MOTION_DDOT": 0}, "tle": {"line1": "1 66914U 25284B   25350.28554881  .00008068  00000+0  38445-3 0  9991", "line2": "2 66914  80.4045 125.2713 0008179 234.9626 125.0834 15.18985981  1668"}}, "geometry": {"type": "Point", "coordinates": [123.38694490888132, 23.903585810923605]}}, {"type": "Feature", "properties": {"norad_id": 66915, "name": "HULIANWANG DIGUI-105", "group": "last-30-days", "lat": -36.38149179629238, "lon": 44.75934006425363, "alt_km": 879.0030561265366, "timestamp": "2025-12-21T03:56:49.617282+00:00", "meta": {"OBJECT_NAME": "HULIANWANG DIGUI-105", "OBJECT_ID": "2025-285A", "EPOCH": "2025-12-20T21:21:12.175200", "MEAN_MOTION": 14.03717974, "ECCENTRICITY": 0.0008051, "INCLINATION": 50.0049, "RA_OF_ASC_NODE": 84.0851, "ARG_OF_PERICENTER": 309.9341, "MEAN_ANOMALY": 50.0856, "EPHEMERIS_TYPE": 0, "CLASSIFICATION_TYPE": "U", "NORAD_CAT_ID": 66915, "ELEMENT_SET_NO": 999, "REV_AT_EPOCH": 205, "BSTAR": 9.4511e-05, "MEAN_MOTION_DOT": -2e-08, "MEAN_MOTION_DDOT": 0}, "tle": {"line1": "1 66915U 25285A   25354.88972425 -.00000002  00000+0  94511-4 0  9999", "line2": "2 66915  50.0049  84.0851 0008051 309.9341  50.0856 14.03717974  2050"}}, "geometry": {"type": "Point", "coordinates": [44.75934006425363, -36.38149179629238]}}, {"type": "Feature", "properties": {"norad_id": 66916, "name": "HULIANWANG DIGUI-106", "group": "last-30-days", "lat": -26.825677193726612, "lon": 57.820949467214476, "alt_km": 879.6248443105269, "timestamp": "2025-12-21T03:56:49.617292+00:00", "meta": {"OBJECT_NAME": "HULIANWANG DIGUI-106", "OBJECT_ID": "2025-285B", "EPOCH": "2025-12-20T19:34:30.775872", "MEAN_MOTION": 14.03702853, "ECCENTRICITY": 0.0006826, "INCLINATION": 50.006, "RA_OF_ASC_NODE": 84.3613, "ARG_OF_PERICENTER": 302.9073, "MEAN_ANOMALY": 57.1174, "EPHEMERIS_TYPE": 0, "CLASSIFICATION_TYPE": "U", "NORAD_CAT_ID": 66916, "ELEMENT_SET_NO": 999, "REV_AT_EPOCH": 204, "BSTAR": 9.339e-05, "MEAN_MOTION_DOT": -4e-08, "MEAN_MOTION_DDOT": 0}, "tle": {"line1": "1 66916U 25285B   25354.81563398 -.00000004  00000+0  93390-4 0  9994", "line2": "2 66916  50.0060  84.3613 0006826 302.9073  57.1174 14.03702853  2046"}}, "geometry": {"type": "Point", "coordinates": [57.820949467214476, -26.825677193726612]}}, {"type": "Feature", "properties": {"norad_id": 66917, "name": "HULIANWANG DIGUI-107", "group": "last-30-days", "lat": -20.219608440487363, "lon": 64.9043334698399, "alt_km": 878.7701303578006, "timestamp": "2025-12-21T03:56:49.617303+00:00", "meta": {"OBJECT_NAME": "HULIANWANG DIGUI-107", "OBJECT_ID": "2025-285C", "EPOCH": "2025-12-20T19:31:51.400704", "MEAN_MOTION": 14.03662877, "ECCENTRICITY": 0.0007484, "INCLINATION": 50.0025, "RA_OF_ASC_NODE": 84.345, "ARG_OF_PERICENTER": 312.4165, "MEAN_ANOMALY": 47.6105, "EPHEMERIS_TYPE": 0, "CLASSIFICATION_TYPE": "U", "NORAD_CAT_ID": 66917, "ELEMENT_SET_NO": 999, "REV_AT_EPOCH": 204, "BSTAR": 9.0746e-05, "MEAN_MOTION_DOT": -8e-08, "MEAN_MOTION_DDOT": 0}, "tle": {"line1": "1 66917U 25285C   25354.81378936 -.00000008  00000+0  90746-4 0  9993", "line2": "2 66917  50.0025  84.3450 0007484 312.4165  47.6105 14.03662877  2045"}}, "geometry": {"type": "Point", "coordinates": [64.9043334698399, -20.219608440487363]}}, {"type": "Feature", "properties": {"norad_id": 66918, "name": "HULIANWANG DIGUI-108", "group": "last-30-days", "lat": -17.392183014897796, "lon": 67.6681115889867, "alt_km": 879.6364307559215, "timestamp": "2025-12-21T03:56:49.617312+00:00", "meta": {"OBJECT_NAME": "HULIANWANG DIGUI-108", "OBJECT_ID": "2025-285D", "EPOCH": "2025-12-20T19:30:44.368992", "MEAN_MOTION": 14.03601871, "ECCENTRICITY": 0.0006615, "INCLINATION": 50.0047, "RA_OF_ASC_NODE": 84.3448, "ARG_OF_PERICENTER": 306.9743, "MEAN_ANOMALY": 53.0555, "EPHEMERIS_TYPE": 0, "CLASSIFICATION_TYPE": "U", "NORAD_CAT_ID": 66918, "ELEMENT_SET_NO": 999, "REV_AT_EPOCH": 204, "BSTAR": 9.378e-05, "MEAN_MOTION_DOT": -3e-08, "MEAN_MOTION_DDOT": 0}, "tle": {"line1": "1 66918U 25285D   25354.81301353 -.00000003  00000+0  93780-4 0  9999", "line2": "2 66918  50.0047  84.3448 0006615 306.9743  53.0555 14.03601871  2049"}}, "geometry": {"type": "Point", "coordinates": [67.6681115889867, -17.392183014897796]}}]}